[{"OBJECT_NAME":"HEAD-3D","OBJECT_ID":"2023-121D","EPOCH":"2026-03-09T23:30:37.088352","MEAN_MOTION":14.62739417,"ECCENTRICITY":0.00055409,"INCLINATION":45.0054,"RA_OF_ASC_NODE":64.1503,"ARG_OF_PERICENTER":112.6347,"MEAN_ANOMALY":247.5097,"EPHEMERIS_TYPE":0,"CLASSIFICATION_TYPE":"U","NORAD_CAT_ID":57629,"ELEMENT_SET_NO":999,"REV_AT_EPOCH":13727,"BSTAR":0.00023960943,"MEAN_MOTION_DOT":1.072e-5,"MEAN_MOTION_DDOT":0},{"OBJECT_NAME":"UNKNOWN","OBJECT_ID":"","EPOCH":"2026-02-19T20:35:11.207040","MEAN_MOTION":14.11160592,"ECCENTRICITY":0.02698824,"INCLINATION":97.6666,"RA_OF_ASC_NODE":281.0029,"ARG_OF_PERICENTER":171.6768,"MEAN_ANOMALY":188.902,"EPHEMERIS_TYPE":0,"CLASSIFICATION_TYPE":"U","NORAD_CAT_ID":270315,"ELEMENT_SET_NO":999,"REV_AT_EPOCH":29367,"BSTAR":0.001070258,"MEAN_MOTION_DOT":2.68e-5,"MEAN_MOTION_DDOT":0}]
